{
  "norad_id": 55769,
  "name": "STARLINK-5584",
  "history": [
    {
      "epoch": "2026-03-28T15:54:05.334336",
      "apogee_km": 574.1787688439363,
      "perigee_km": 570.0528207748266,
      "latitude_deg": -55.52555289360327,
      "longitude_deg": -179.49407295999117,
      "semi_major_axis_km": 6950.252794809381,
      "eccentricity": 0.00029682,
      "inclination_deg": 70.0012,
      "raan_deg": 176.6769,
      "arg_perigee_deg": 263.0364,
      "mean_anomaly_deg": 97.0458,
      "mean_motion_rev_day": 14.98310629
    }
  ]
}